OBJECT_NAME,OBJECT_ID,EPOCH,MEAN_MOTION,ECCENTRICITY,INCLINATION,RA_OF_ASC_NODE,ARG_OF_PERICENTER,MEAN_ANOMALY,EPHEMERIS_TYPE,CLASSIFICATION_TYPE,NORAD_CAT_ID,ELEMENT_SET_NO,REV_AT_EPOCH,BSTAR,MEAN_MOTION_DOT,MEAN_MOTION_DDOT
CUBEBUG-2 (LO-74),2013-066AA,2026-07-18T19:29:11.012928,14.93981472,.00555757,97.8920,148.9319,283.1152,76.3869,0,U,39440,999,68171,.17796214E-3,.1891E-4,0
FUNCUBE-1 (AO-73),2013-066AE,2026-07-18T20:54:53.730144,15.09848087,.0037964,97.8298,171.9904,95.7411,264.8148,0,U,39444,999,68444,.27858979E-3,.4515E-4,0
UWE-3,2013-066AG,2026-07-18T19:53:41.818272,14.97214313,.0047627,97.8721,156.1237,212.0168,147.8158,0,U,39446,999,68231,.18604253E-3,.2139E-4,0
UNISAT-6,2014-033C,2026-07-18T20:47:30.537888,14.88374766,.00438717,97.7914,352.0296,325.4406,34.3961,0,U,40012,999,65087,.11385573E-3,.1015E-4,0
DUCHIFAT-1,2014-033M,2026-07-18T16:08:38.936832,15.71696006,.00031533,98.0415,263.4357,232.8599,127.2374,0,U,40021,999,66068,.72508872E-3,.94147E-3,0
QB50P1,2014-033R,2026-07-18T07:39:18.658080,15.18693321,.0010487,98.0968,212.6585,115.5699,244.6619,0,U,40025,999,65775,.21985551E-3,.4488E-4,0
LILACSAT-2,2015-049K,2026-07-18T20:46:44.470272,15.52440772,.00085722,97.4623,237.9281,130.7952,229.4046,0,U,40908,999,60066,.17436439E-3,.10571E-3,0
FOX-1A (AO-85),2015-058D,2026-07-18T16:12:01.429920,14.91100292,.01326568,64.7726,181.1175,44.4905,316.6768,0,U,40967,999,11826,.14854367E-3,.1565E-4,0
CAS-2T & KS-1Q,2016-066G,2026-07-18T19:43:06.860352,14.44774190,.03420697,98.3812,275.1958,33.7721,328.4756,0,U,41847,999,50936,.6859963E-4,.428E-5,0
RADFXSAT (FOX-1B),2017-073E,2026-07-18T21:19:39.756576,15.13090788,.01483699,97.4662,66.4574,218.5900,140.4654,0,U,43017,999,47018,.15124718E-3,.3432E-4,0
DIWATA-2B,2018-084H,2026-07-18T23:29:04.568640,15.00571378,.00126402,98.1213,37.5792,72.7944,287.4661,0,U,43678,999,42098,.81267423E-4,.961E-5,0
ES'HAIL 2,2018-090A,2026-07-18T22:07:16.856832,1.00273163,.00023838,0.0172,77.2456,80.9591,136.1147,0,U,43700,999,2799,0,.138E-5,0
FOX-1CLIFF (AO-95),2018-099N,2026-07-18T03:19:05.980224,15.27309721,.00074754,97.4363,259.2809,227.7066,132.3540,0,U,43770,999,41794,.22607484E-3,.5977E-4,0
ITASAT,2018-099AE,2026-07-18T16:51:23.038272,15.19405003,.00111002,97.4009,250.5895,236.4623,123.5552,0,U,43786,999,41769,.15156314E-3,.3145E-4,0
JY1SAT (JO-97),2018-099AX,2026-07-18T03:25:52.114656,15.34577339,.00070997,97.4106,262.1024,149.2378,210.9282,0,U,43803,999,41837,.28599386E-3,.9509E-4,0
UWE-4,2018-111E,2026-07-18T18:41:09.153024,15.47960214,.00066755,97.5834,129.6699,180.9155,179.2083,0,U,43880,999,41566,.35826827E-3,.18634E-3,0
TIANYAN 01,2019-093C,2026-07-18T22:48:32.717088,14.86563003,.00131904,97.7515,271.4062,349.0239,11.0687,0,U,44881,999,35613,.61765911E-4,.494E-5,0
RS-44 & BREEZE-KM R/B,2019-096E,2026-07-18T19:47:29.547456,12.79748895,.0218471,82.5244,318.6831,70.5556,291.9010,0,U,44909,999,30639,.14406434E-4,.16E-6,0
SALSAT,2020-068K,2026-07-18T00:21:03.770208,15.30195257,.00094957,97.8861,203.9671,182.8082,177.3106,0,U,46495,999,32007,.14176866E-3,.4061E-4,0
XW-3 (CAS-9),2021-131B,2026-07-18T22:01:28.936128,14.41383391,.00043596,98.4987,292.1364,20.9840,339.1527,0,U,50466,999,23968,.7996967E-4,.215E-5,0
GREENCUBE (IO-117),2022-080E,2026-07-18T14:56:54.559680,6.42583326,.00090811,70.1404,287.3145,282.7035,77.2609,0,U,53109,999,9408,0,-.3E-7,0
UMKA 1 (RS40S),2023-091G,2026-07-18T22:27:05.357952,15.21144173,.00126638,97.5029,258.5146,16.9888,343.1769,0,U,57172,999,16883,.13351858E-3,.2908E-4,0
CUBESX-HSE 3 (RS42S),2023-091N,2026-07-18T22:12:57.303936,15.31937291,.00092736,97.5070,265.9281,348.1492,11.9530,0,U,57178,999,16928,.23086727E-3,.7047E-4,0
MONITOR-3 (RS58S),2023-091Q,2026-07-18T22:57:05.868288,15.28413294,.00105927,97.5062,263.6458,356.1704,3.9452,0,U,57180,999,16914,.18479574E-3,.5042E-4,0
MONITOR-4 (RS57S),2023-091S,2026-07-18T22:24:23.154048,15.28500498,.00105854,97.5055,263.5959,356.6886,3.4282,0,U,57182,999,16914,.19604228E-3,.5368E-4,0
MONITOR-2 (RS39S),2023-091U,2026-07-18T22:21:14.646528,15.19172781,.00110184,97.5051,258.0116,11.4815,348.6668,0,U,57184,999,16877,.11198808E-3,.2288E-4,0
SVYATOBOR 1 (RS60S),2023-091X,2026-07-18T21:49:35.741280,15.27097443,.00083555,97.5068,263.9101,351.0177,9.0911,0,U,57187,999,16915,.17127276E-3,.448E-4,0
VIZARD-METEO (RS38S),2023-091Z,2026-07-18T22:16:39.598176,15.36943079,.0005368,97.5070,270.0692,323.4841,36.6036,0,U,57189,999,16956,.25306512E-3,.9063E-4,0
POLYTECH-UNIVERSE 3 (RS46S),2023-091AB,2026-07-18T21:19:19.510464,15.19385566,.00157225,97.5026,257.4730,25.3903,334.8101,0,U,57191,999,16876,.11592731E-3,.239E-4,0
UTMN 2 (RS27S),2023-091AP,2026-07-18T22:13:41.466432,15.32753032,.00063817,97.5066,267.6009,335.4353,24.6584,0,U,57203,999,16940,.21274422E-3,.6652E-4,0
